[{"OBJECT_NAME":"STARLINK-32672","OBJECT_ID":"2024-229D","EPOCH":"2026-03-09T23:01:13.117440","MEAN_MOTION":15.27591604,"ECCENTRICITY":0.00028318,"INCLINATION":43.0028,"RA_OF_ASC_NODE":269.1028,"ARG_OF_PERICENTER":248.7074,"MEAN_ANOMALY":111.3475,"EPHEMERIS_TYPE":0,"CLASSIFICATION_TYPE":"U","NORAD_CAT_ID":62195,"ELEMENT_SET_NO":999,"REV_AT_EPOCH":7060,"BSTAR":0.00057822556,"MEAN_MOTION_DOT":0.0001569,"MEAN_MOTION_DDOT":0},{"OBJECT_NAME":"FLOCK 4G-29","OBJECT_ID":"2025-009AK","EPOCH":"2026-03-09T19:33:04.927968","MEAN_MOTION":15.27382318,"ECCENTRICITY":0.00013664,"INCLINATION":97.4058,"RA_OF_ASC_NODE":151.3683,"ARG_OF_PERICENTER":288.0502,"MEAN_ANOMALY":72.0588,"EPHEMERIS_TYPE":0,"CLASSIFICATION_TYPE":"U","NORAD_CAT_ID":62642,"ELEMENT_SET_NO":999,"REV_AT_EPOCH":6372,"BSTAR":0.0004183135,"MEAN_MOTION_DOT":0.00011147,"MEAN_MOTION_DDOT":0}]
